STARLINK-11664 [DTC]    
1 63666U 25085C   25151.52615262  .00001769  00000+0  13028-4 0  9990
2 63666  42.9987 181.1159 0001483 279.0139  81.0563 15.77853438  5853
STARLINK-11666 [DTC]    
1 63667U 25085D   25151.52126958 -.00000175  00000+0  18627-5 0  9992
2 63667  42.9958 181.0762 0001651 271.1916  88.8765 15.77865079  5756
STARLINK-11663 [DTC]    
1 63668U 25085E   25151.51639136  .00001531  00000+0  11663-4 0  9997
2 63668  42.9975 181.0381 0001656 285.3558  74.7129 15.77858416  5842
STARLINK-11595 [DTC]    
1 63669U 25085F   25151.51151217  .00000286  00000+0  45072-5 0  9995
2 63669  42.9992 181.0010 0001166 277.8671  82.2066 15.77861005  6482
STARLINK-11599 [DTC]    
1 63670U 25085G   25151.50663533  .00000385  00000+0  50745-5 0  9998
2 63670  42.9987 180.9607 0001402 288.1321  71.9396 15.77855957  5847
STARLINK-11603 [DTC]    
1 63671U 25085H   25151.50175314  .00001050  00000+0  88995-5 0  9992
2 63671  42.9989 180.9186 0002177 278.4965  81.5658 15.77859548  5846
STARLINK-11644 [DTC]    
1 63672U 25085J   25151.37027632  .00001633  00000+0  12249-4 0  9992
2 63672  42.9973 181.6506 0001739 269.0299  91.0372 15.77857670  5824
STARLINK-11634 [DTC]    
1 63673U 25085K   25151.36539169 -.00004141  00000+0 -20919-4 0  9997
2 63673  42.9993 181.6125 0001869 274.8668  85.1989 15.77876775  5827
STARLINK-11656 [DTC]    
1 63674U 25085L   25151.55041587  .00001148  00000+0  94605-5 0  9997
2 63674  42.9990 180.4178 0001314 265.3794  94.6926 15.77857127  5859
STARLINK-11655 [DTC]    
1 63675U 25085M   25151.79873043  .00001705  00000+0  12654-4 0  9996
2 63675  42.9976 178.8391 0001023 275.2873  84.7880 15.77862844  5904
STARLINK-11661 [DTC]    
1 63676U 25085N   25151.79385794  .00007308  00000+0  44831-4 0  9995
2 63676  42.9987 178.7998 0002035 279.5541  80.5099 15.77853704  6533
STARLINK-33816          
1 63677U 25085P   25151.57362694  .00000854  00000+0  27714-4 0  9996
2 63677  43.0009 185.9191 0001417 262.5625  97.5070 15.40697710  5803
STARLINK-33861          
1 63678U 25085Q   25151.57138252  .00001574  00000+0  44927-4 0  9993
2 63678  42.9996 185.9030 0001643 268.3457  91.7211 15.40703460  5697
STARLINK-33850          
1 63679U 25085R   25151.56914177 -.00002323  00000+0 -48350-4 0  9990
2 63679  43.0012 185.8848 0001314 266.3704  93.7002 15.40711081  5691
