[
  {
    "OBJECT_NAME": "STARLINK-11664 [DTC]",
    "OBJECT_ID": "2025-085C",
    "EPOCH": "2025-05-31T12:37:39.586368",
    "MEAN_MOTION": 15.77853438,
    "ECCENTRICITY": 0.0001483,
    "INCLINATION": 42.9987,
    "RA_OF_ASC_NODE": 181.1159,
    "ARG_OF_PERICENTER": 279.0139,
    "MEAN_ANOMALY": 81.0563,
    "EPHEMERIS_TYPE": 0,
    "CLASSIFICATION_TYPE": "U",
    "NORAD_CAT_ID": 63666,
    "ELEMENT_SET_NO": 999,
    "REV_AT_EPOCH": 585,
    "BSTAR": 1.3028e-05,
    "MEAN_MOTION_DOT": 1.769e-05,
    "MEAN_MOTION_DDOT": 0
  },
  {
    "OBJECT_NAME": "STARLINK-11666 [DTC]",
    "OBJECT_ID": "2025-085D",
    "EPOCH": "2025-05-31T12:30:37.691712",
    "MEAN_MOTION": 15.77865079,
    "ECCENTRICITY": 0.0001651,
    "INCLINATION": 42.9958,
    "RA_OF_ASC_NODE": 181.0762,
    "ARG_OF_PERICENTER": 271.1916,
    "MEAN_ANOMALY": 88.8765,
    "EPHEMERIS_TYPE": 0,
    "CLASSIFICATION_TYPE": "U",
    "NORAD_CAT_ID": 63667,
    "ELEMENT_SET_NO": 999,
    "REV_AT_EPOCH": 575,
    "BSTAR": 1.8627e-06,
    "MEAN_MOTION_DOT": -1.75e-06,
    "MEAN_MOTION_DDOT": 0
  },
  {
    "OBJECT_NAME": "STARLINK-11663 [DTC]",
    "OBJECT_ID": "2025-085E",
    "EPOCH": "2025-05-31T12:23:36.213504",
    "MEAN_MOTION": 15.77858416,
    "ECCENTRICITY": 0.0001656,
    "INCLINATION": 42.9975,
    "RA_OF_ASC_NODE": 181.0381,
    "ARG_OF_PERICENTER": 285.3558,
    "MEAN_ANOMALY": 74.7129,
    "EPHEMERIS_TYPE": 0,
    "CLASSIFICATION_TYPE": "U",
    "NORAD_CAT_ID": 63668,
    "ELEMENT_SET_NO": 999,
    "REV_AT_EPOCH": 584,
    "BSTAR": 1.1663e-05,
    "MEAN_MOTION_DOT": 1.531e-05,
    "MEAN_MOTION_DDOT": 0
  },
  {
    "OBJECT_NAME": "STARLINK-11595 [DTC]",
    "OBJECT_ID": "2025-085F",
    "EPOCH": "2025-05-31T12:16:34.651488",
    "MEAN_MOTION": 15.77861005,
    "ECCENTRICITY": 0.0001166,
    "INCLINATION": 42.9992,
    "RA_OF_ASC_NODE": 181.001,
    "ARG_OF_PERICENTER": 277.8671,
    "MEAN_ANOMALY": 82.2066,
    "EPHEMERIS_TYPE": 0,
    "CLASSIFICATION_TYPE": "U",
    "NORAD_CAT_ID": 63669,
    "ELEMENT_SET_NO": 999,
    "REV_AT_EPOCH": 648,
    "BSTAR": 4.5072e-06,
    "MEAN_MOTION_DOT": 2.86e-06,
    "MEAN_MOTION_DDOT": 0
  },
  {
    "OBJECT_NAME": "STARLINK-11599 [DTC]",
    "OBJECT_ID": "2025-085G",
    "EPOCH": "2025-05-31T12:09:33.292512",
    "MEAN_MOTION": 15.77855957,
    "ECCENTRICITY": 0.0001402,
    "INCLINATION": 42.9987,
    "RA_OF_ASC_NODE": 180.9607,
    "ARG_OF_PERICENTER": 288.1321,
    "MEAN_ANOMALY": 71.9396,
    "EPHEMERIS_TYPE": 0,
    "CLASSIFICATION_TYPE": "U",
    "NORAD_CAT_ID": 63670,
    "ELEMENT_SET_NO": 999,
    "REV_AT_EPOCH": 584,
    "BSTAR": 5.0745e-06,
    "MEAN_MOTION_DOT": 3.85e-06,
    "MEAN_MOTION_DDOT": 0
  },
  {
    "OBJECT_NAME": "STARLINK-11603 [DTC]",
    "OBJECT_ID": "2025-085H",
    "EPOCH": "2025-05-31T12:02:31.471296",
    "MEAN_MOTION": 15.77859548,
    "ECCENTRICITY": 0.0002177,
    "INCLINATION": 42.9989,
    "RA_OF_ASC_NODE": 180.9186,
    "ARG_OF_PERICENTER": 278.4965,
    "MEAN_ANOMALY": 81.5658,
    "EPHEMERIS_TYPE": 0,
    "CLASSIFICATION_TYPE": "U",
    "NORAD_CAT_ID": 63671,
    "ELEMENT_SET_NO": 999,
    "REV_AT_EPOCH": 584,
    "BSTAR": 8.8995e-06,
    "MEAN_MOTION_DOT": 1.05e-05,
    "MEAN_MOTION_DDOT": 0
  },
  {
    "OBJECT_NAME": "STARLINK-11644 [DTC]",
    "OBJECT_ID": "2025-085J",
    "EPOCH": "2025-05-31T08:53:11.874048",
    "MEAN_MOTION": 15.7785767,
    "ECCENTRICITY": 0.0001739,
    "INCLINATION": 42.9973,
    "RA_OF_ASC_NODE": 181.6506,
    "ARG_OF_PERICENTER": 269.0299,
    "MEAN_ANOMALY": 91.0372,
    "EPHEMERIS_TYPE": 0,
    "CLASSIFICATION_TYPE": "U",
    "NORAD_CAT_ID": 63672,
    "ELEMENT_SET_NO": 999,
    "REV_AT_EPOCH": 582,
    "BSTAR": 1.2249e-05,
    "MEAN_MOTION_DOT": 1.633e-05,
    "MEAN_MOTION_DDOT": 0
  },
  {
    "OBJECT_NAME": "STARLINK-11634 [DTC]",
    "OBJECT_ID": "2025-085K",
    "EPOCH": "2025-05-31T08:46:09.842016",
    "MEAN_MOTION": 15.77876775,
    "ECCENTRICITY": 0.0001869,
    "INCLINATION": 42.9993,
    "RA_OF_ASC_NODE": 181.6125,
    "ARG_OF_PERICENTER": 274.8668,
    "MEAN_ANOMALY": 85.1989,
    "EPHEMERIS_TYPE": 0,
    "CLASSIFICATION_TYPE": "U",
    "NORAD_CAT_ID": 63673,
    "ELEMENT_SET_NO": 999,
    "REV_AT_EPOCH": 582,
    "BSTAR": -2.0919e-05,
    "MEAN_MOTION_DOT": -4.141e-05,
    "MEAN_MOTION_DDOT": 0
  },
  {
    "OBJECT_NAME": "STARLINK-11656 [DTC]",
    "OBJECT_ID": "2025-085L",
    "EPOCH": "2025-05-31T13:12:35.931168",
    "MEAN_MOTION": 15.77857127,
    "ECCENTRICITY": 0.0001314,
    "INCLINATION": 42.999,
    "RA_OF_ASC_NODE": 180.4178,
    "ARG_OF_PERICENTER": 265.3794,
    "MEAN_ANOMALY": 94.6926,
    "EPHEMERIS_TYPE": 0,
    "CLASSIFICATION_TYPE": "U",
    "NORAD_CAT_ID": 63674,
    "ELEMENT_SET_NO": 999,
    "REV_AT_EPOCH": 585,
    "BSTAR": 9.4605e-06,
    "MEAN_MOTION_DOT": 1.148e-05,
    "MEAN_MOTION_DDOT": 0
  },
  {
    "OBJECT_NAME": "STARLINK-11655 [DTC]",
    "OBJECT_ID": "2025-085M",
    "EPOCH": "2025-05-31T19:10:10.309152",
    "MEAN_MOTION": 15.77862844,
    "ECCENTRICITY": 0.0001023,
    "INCLINATION": 42.9976,
    "RA_OF_ASC_NODE": 178.8391,
    "ARG_OF_PERICENTER": 275.2873,
    "MEAN_ANOMALY": 84.788,
    "EPHEMERIS_TYPE": 0,
    "CLASSIFICATION_TYPE": "U",
    "NORAD_CAT_ID": 63675,
    "ELEMENT_SET_NO": 999,
    "REV_AT_EPOCH": 590,
    "BSTAR": 1.2654e-05,
    "MEAN_MOTION_DOT": 1.705e-05,
    "MEAN_MOTION_DDOT": 0
  },
  {
    "OBJECT_NAME": "STARLINK-11661 [DTC]",
    "OBJECT_ID": "2025-085N",
    "EPOCH": "2025-05-31T19:03:09.326016",
    "MEAN_MOTION": 15.77853704,
    "ECCENTRICITY": 0.0002035,
    "INCLINATION": 42.9987,
    "RA_OF_ASC_NODE": 178.7998,
    "ARG_OF_PERICENTER": 279.5541,
    "MEAN_ANOMALY": 80.5099,
    "EPHEMERIS_TYPE": 0,
    "CLASSIFICATION_TYPE": "U",
    "NORAD_CAT_ID": 63676,
    "ELEMENT_SET_NO": 999,
    "REV_AT_EPOCH": 653,
    "BSTAR": 4.4831e-05,
    "MEAN_MOTION_DOT": 7.308e-05,
    "MEAN_MOTION_DDOT": 0
  },
  {
    "OBJECT_NAME": "STARLINK-33816",
    "OBJECT_ID": "2025-085P",
    "EPOCH": "2025-05-31T13:46:01.367616",
    "MEAN_MOTION": 15.4069771,
    "ECCENTRICITY": 0.0001417,
    "INCLINATION": 43.0009,
    "RA_OF_ASC_NODE": 185.9191,
    "ARG_OF_PERICENTER": 262.5625,
    "MEAN_ANOMALY": 97.507,
    "EPHEMERIS_TYPE": 0,
    "CLASSIFICATION_TYPE": "U",
    "NORAD_CAT_ID": 63677,
    "ELEMENT_SET_NO": 999,
    "REV_AT_EPOCH": 580,
    "BSTAR": 2.7714e-05,
    "MEAN_MOTION_DOT": 8.54e-06,
    "MEAN_MOTION_DDOT": 0
  },
  {
    "OBJECT_NAME": "STARLINK-33861",
    "OBJECT_ID": "2025-085Q",
    "EPOCH": "2025-05-31T13:42:47.449728",
    "MEAN_MOTION": 15.4070346,
    "ECCENTRICITY": 0.0001643,
    "INCLINATION": 42.9996,
    "RA_OF_ASC_NODE": 185.903,
    "ARG_OF_PERICENTER": 268.3457,
    "MEAN_ANOMALY": 91.7211,
    "EPHEMERIS_TYPE": 0,
    "CLASSIFICATION_TYPE": "U",
    "NORAD_CAT_ID": 63678,
    "ELEMENT_SET_NO": 999,
    "REV_AT_EPOCH": 569,
    "BSTAR": 4.4927e-05,
    "MEAN_MOTION_DOT": 1.574e-05,
    "MEAN_MOTION_DDOT": 0
  },
  {
    "OBJECT_NAME": "STARLINK-33850",
    "OBJECT_ID": "2025-085R",
    "EPOCH": "2025-05-31T13:39:33.848928",
    "MEAN_MOTION": 15.40711081,
    "ECCENTRICITY": 0.0001314,
    "INCLINATION": 43.0012,
    "RA_OF_ASC_NODE": 185.8848,
    "ARG_OF_PERICENTER": 266.3704,
    "MEAN_ANOMALY": 93.7002,
    "EPHEMERIS_TYPE": 0,
    "CLASSIFICATION_TYPE": "U",
    "NORAD_CAT_ID": 63679,
    "ELEMENT_SET_NO": 999,
    "REV_AT_EPOCH": 569,
    "BSTAR": -4.835e-05,
    "MEAN_MOTION_DOT": -2.323e-05,
    "MEAN_MOTION_DDOT": 0
  }
]